GLOBALSTAR M045         
1 25676U 99019A   25348.22853603 -.00000062  00000+0  28212-3 0  9991
2 25676  51.9940 152.1085 0001035 111.8874  59.0353 12.27070555215497
GLOBALSTAR M019         
1 25677U 99019B   25348.28673832  .00000006  00000+0  10039-2 0  9996
2 25677  51.9889 294.9845 0001607 345.7851 161.9358 12.13876513207017
GLOBALSTAR M044         
1 25678U 99019C   25348.25388568 -.00000045  00000+0  53496-3 0  9992
2 25678  51.9975 268.9625 0006798  28.6480 139.6781 11.90261463192765
GLOBALSTAR M042         
1 25679U 99019D   25348.18238422 -.00000027  00000+0  61736-3 0  9994
2 25679  52.0019 262.8198 0002942 327.4771 179.9936 12.22094060207269
GLOBALSTAR M025         
1 25770U 99031A   25348.25281666 -.00000054  00000+0  42780-3 0  9994
2 25770  51.9812 102.1331 0003031  94.6291 275.6499 11.22558917501939
GLOBALSTAR M049         
1 25771U 99031B   25348.11179050 -.00000109  00000+0 -15282-2 0  9991
2 25771  51.9842 146.2658 0002176 340.0696  20.0015 11.12123826137443
GLOBALSTAR M047         
1 25772U 99031C   25347.85507418 -.00000082  00000+0 -34509-3 0  9999
2 25772  51.9813 126.6511 0016182 207.3778 152.6176 11.31931723491458
GLOBALSTAR M052         
1 25773U 99031D   25348.17100519 -.00000105  00000+0 -13219-2 0  9997
2 25773  51.9863 252.2773 0003292  94.6920  76.0772 11.15062411498587
